*******************************************************************************
Revised: April 12, 2021         Earth Barycenter                              3
 
 Dynamical point:
 ---------------
 The common point about which the Earth and Moon revolve (center of mass). This
 is approximately 4671 km from the center of the Earth, or about 3/4 of the way 
 to the surface. See 399 for Earth center, or 301 for Moon center ephemeris.
*******************************************************************************


*******************************************************************************
Ephemeris / WWW_USER Sat Feb 12 07:55:00 2022 Pasadena, USA      / Horizons
*******************************************************************************
Target body name: Earth-Moon Barycenter (3)       {source: DE441}
Center body name: Sun (10)                        {source: DE441}
Center-site name: BODY CENTER
*******************************************************************************
Start time      : A.D. 2020-Jan-01 00:00:00.0000 TDB
Stop  time      : A.D. 2022-Mar-01 00:00:00.0000 TDB
Step-size       : 1440 minutes
*******************************************************************************
Center geodetic : 0.00000000,0.00000000,0.0000000 {E-lon(deg),Lat(deg),Alt(km)}
Center cylindric: 0.00000000,0.00000000,0.0000000 {E-lon(deg),Dxy(km),Dz(km)}
Center radii    : 696000.0 x 696000.0 x 696000.0 k{Equator, meridian, pole}    
Output units    : AU-D
Output type     : GEOMETRIC cartesian states
Output format   : 2 (position and velocity)
Reference frame : ICRF
*******************************************************************************
JDTDB
   X     Y     Z
   VX    VY    VZ
*******************************************************************************
$$SOE
2459267.500000000 = A.D. 2021-Feb-22 00:00:00.0000 TDB 
 X =-8.836307988800384E-01 Y = 4.078717793421567E-01 Z = 1.768140405121097E-01
 VX=-8.012513437604979E-03 VY=-1.416051889886640E-02 VZ=-6.138519380887525E-03
2459268.500000000 = A.D. 2021-Feb-23 00:00:00.0000 TDB 
 X =-8.915078521583555E-01 Y = 3.936496448393293E-01 Z = 1.706488105710325E-01
 VX=-7.741222430750582E-03 VY=-1.428301179294269E-02 VZ=-6.191620444789142E-03
2459269.500000000 = A.D. 2021-Feb-24 00:00:00.0000 TDB 
 X =-8.991125171639820E-01 Y = 3.793072377492284E-01 Z = 1.644314420613871E-01
 VX=-7.467751707799907E-03 VY=-1.440105876078024E-02 VZ=-6.242794214947965E-03
2459270.500000000 = A.D. 2021-Feb-25 00:00:00.0000 TDB 
 X =-9.064426587086192E-01 Y = 3.648490196726767E-01 Z = 1.581638690719554E-01
 VX=-7.192190404206056E-03 VY=-1.451462871662351E-02 VZ=-6.292027215517693E-03
2459271.500000000 = A.D. 2021-Feb-26 00:00:00.0000 TDB 
 X =-9.134962309729168E-01 Y = 3.502794825055649E-01 Z = 1.518480388244691E-01
 VX=-6.914628116317809E-03 VY=-1.462369215652208E-02 VZ=-6.339306656635593E-03
2459272.500000000 = A.D. 2021-Feb-27 00:00:00.0000 TDB 
 X =-9.202712779489990E-01 Y = 3.356031468558463E-01 Z = 1.454859109871041E-01
 VX=-6.635154864556681E-03 VY=-1.472822116064743E-02 VZ=-6.384620435418736E-03
2459273.500000000 = A.D. 2021-Feb-28 00:00:00.0000 TDB 
 X =-9.267659338459314E-01 Y = 3.208245604584404E-01 Z = 1.390794569871087E-01
 VX=-6.353861056141592E-03 VY=-1.482818939518279E-02 VZ=-6.427957136714433E-03
2459274.500000000 = A.D. 2021-Mar-01 00:00:00.0000 TDB 
 X =-9.329784234577612E-01 Y = 3.059482965884054E-01 Z = 1.326306593227760E-01
 VX=-6.070837447555471E-03 VY=-1.492357211390908E-02 VZ=-6.469306033665673E-03
2459275.500000000 = A.D. 2021-Mar-02 00:00:00.0000 TDB 
 X =-9.389070624940350E-01 Y = 2.909789524726618E-01 Z = 1.261415108749292E-01
 VX=-5.786175107106972E-03 VY=-1.501434615951373E-02 VZ=-6.508657088127810E-03
2459276.500000000 = A.D. 2021-Mar-03 00:00:00.0000 TDB 
 X =-9.445502578731081E-01 Y = 2.759211477005781E-01 Z = 1.196140142180627E-01
 VX=-5.499965378016320E-03 VY=-1.510048996452802E-02 VZ=-6.546000950931880E-03
2459277.500000000 = A.D. 2021-Mar-04 00:00:00.0000 TDB 
 X =-9.499065079789650E-01 Y = 2.607795226338899E-01 Z = 1.130501809313171E-01
 VX=-5.212299842414496E-03 VY=-1.518198355168418E-02 VZ=-6.581328961942349E-03
2459278.500000000 = A.D. 2021-Mar-05 00:00:00.0000 TDB 
 X =-9.549744028826034E-01 Y = 2.455587368166649E-01 Z = 1.064520309095363E-01
 VX=-4.923270286485637E-03 VY=-1.525880853341652E-02 VZ=-6.614633149818643E-03
2459279.500000000 = A.D. 2021-Mar-06 00:00:00.0000 TDB 
 X =-9.597526245291336E-01 Y = 2.302634673863023E-01 Z = 9.982159167475256E-02
 VX=-4.632968666727186E-03 VY=-1.533094811026110E-02 VZ=-6.645906231381045E-03
2459280.500000000 = A.D. 2021-Mar-07 00:00:00.0000 TDB 
 X =-9.642399468915727E-01 Y = 2.148984074867221E-01 Z = 9.316089768853046E-02
 VX=-4.341487077003052E-03 VY=-1.539838706809231E-02 VZ=-6.675141610529504E-03
2459281.500000000 = A.D. 2021-Mar-08 00:00:00.0000 TDB 
 X =-9.684352360919334E-01 Y = 1.994682646848782E-01 Z = 8.647198966561893E-02
 VX=-4.048917716074530E-03 VY=-1.546111177419751E-02 VZ=-6.702333376688641E-03
2459282.500000000 = A.D. 2021-Mar-09 00:00:00.0000 TDB 
 X =-9.723374504899868E-01 Y = 1.839777593917916E-01 Z = 7.975691388941052E-02
 VX=-3.755352855279801E-03 VY=-1.551911017226282E-02 VZ=-6.727476302779184E-03
2459283.500000000 = A.D. 2021-Mar-10 00:00:00.0000 TDB 
 X =-9.759456407395932E-01 Y = 1.684316232889999E-01 Z = 7.301772152962493E-02
 VX=-3.460884806030080E-03 VY=-1.557237177652156E-02 VZ=-6.750565842787016E-03
2459284.500000000 = A.D. 2021-Mar-11 00:00:00.0000 TDB 
 X =-9.792589498124127E-01 Y = 1.528345977612403E-01 Z = 6.625646796261188E-02
 VX=-3.165605887017730E-03 VY=-1.562088766520415E-02 VZ=-6.771598128976498E-03
2459285.500000000 = A.D. 2021-Mar-12 00:00:00.0000 TDB 
 X =-9.822766129886569E-01 Y = 1.371914323359459E-01 Z = 5.947521209458619E-02
 VX=-2.869608391119447E-03 VY=-1.566465047347433E-02 VZ=-6.790569968821152E-03
2459286.500000000 = A.D. 2021-Mar-13 00:00:00.0000 TDB 
 X =-9.849979578146399E-01 Y = 1.215068831300120E-01 Z = 5.267601568804822E-02
 VX=-2.572984552105212E-03 VY=-1.570365438597500E-02 VZ=-6.807478841712259E-03
2459287.500000000 = A.D. 2021-Mar-14 00:00:00.0000 TDB 
 X =-9.874224040270094E-01 Y = 1.057857113041739E-01 Z = 4.586094269158488E-02
 VX=-2.275826511332855E-03 VY=-1.573789512906508E-02 VZ=-6.822322895495958E-03
2459288.500000000 = A.D. 2021-Mar-15 00:00:00.0000 TDB 
 X =-9.895494634437650E-01 Y = 9.003268152529190E-02 Z = 3.903205857320551E-02
 VX=-1.978226284665152E-03 VY=-1.576736996276996E-02 VZ=-6.835100942869874E-03
2459289.500000000 = A.D. 2021-Mar-16 00:00:00.0000 TDB 
 X =-9.913787398224011E-01 Y = 7.425256043683635E-02 Z = 3.219142965734579E-02
 VX=-1.680275729841469E-03 VY=-1.579207767242238E-02 VZ=-6.845812457650836E-03
2459290.500000000 = A.D. 2021-Mar-17 00:00:00.0000 TDB 
 X =-9.929099286857335E-01 Y = 5.845011513790794E-02 Z = 2.534112246566991E-02
 VX=-1.382066514493901E-03 VY=-1.581201855994238E-02 VZ=-6.854457570908832E-03
2459291.500000000 = A.D. 2021-Mar-18 00:00:00.0000 TDB 
 X =-9.941428171161174E-01 Y = 4.263011167118459E-02 Z = 1.848320306181200E-02
 VX=-1.083690084938535E-03 VY=-1.582719443469251E-02 VZ=-6.861037066950956E-03
2459292.500000000 = A.D. 2021-Mar-19 00:00:00.0000 TDB 
 X =-9.950772835188785E-01 Y = 2.679731352025176E-02 Z = 1.161973640021774E-02
 VX=-7.852376358110588E-04 VY=-1.583760860384650E-02 VZ=-6.865552379133619E-03
2459293.500000000 = A.D. 2021-Mar-20 00:00:00.0000 TDB 
 X =-9.957132973558098E-01 Y = 1.095648011682869E-02 Z = 4.752785679268834E-03
 VX=-4.868000805632110E-04 VY=-1.584326586222184E-02 VZ=-6.868005585480727E-03
2459294.500000000 = A.D. 2021-Mar-21 00:00:00.0000 TDB 
 X =-9.960509188495860E-01 Y =-4.887634641555601E-03 Z =-2.115588301105214E-03
 VX=-1.884680227981949E-04 VY=-1.584417248154339E-02 VZ=-6.868399404088180E-03
2459295.500000000 = A.D. 2021-Mar-22 00:00:00.0000 TDB 
 X =-9.960902986599167E-01 Y =-2.073028386285639E-02 Z =-8.983327777105948E-03
 VX= 1.096682715994351E-04 VY=-1.584033619911722E-02 VZ=-6.866737188297653E-03
2459296.500000000 = A.D. 2021-Mar-23 00:00:00.0000 TDB 
 X =-9.958316775322034E-01 Y =-3.656672912017808E-02 Z =-1.584837865379553E-02
 VX= 4.075189015943865E-04 VY=-1.583176620589299E-02 VZ=-6.863022921620545E-03
2459297.500000000 = A.D. 2021-Mar-24 00:00:00.0000 TDB 
 X =-9.952753859193998E-01 Y =-5.239224189918557E-02 Z =-2.270869113261587E-02
 VX= 7.049943574698045E-04 VY=-1.581847313390109E-02 VZ=-6.857261212394196E-03
2459298.500000000 = A.D. 2021-Mar-25 00:00:00.0000 TDB 
 X =-9.944218435776936E-01 Y =-6.820210503264196E-02 Z =-2.956222033342504E-02
 VX= 1.002005546799719E-03 VY=-1.580046904303687E-02 VZ=-6.849457288138352E-03
2459299.500000000 = A.D. 2021-Mar-26 00:00:00.0000 TDB 
 X =-9.932715591363980E-01 Y =-8.399161412139022E-02 Z =-3.640692691072762E-02
 VX= 1.298463819946048E-03 VY=-1.577776740721707E-02 VZ=-6.839616989620401E-03
2459300.500000000 = A.D. 2021-Mar-27 00:00:00.0000 TDB 
 X =-9.918251296424866E-01 Y =-9.975607894118212E-02 Z =-4.324077766381799E-02
 VX= 1.594280995493251E-03 VY=-1.575038309986515E-02 VZ=-6.827746764572778E-03
2459301.500000000 = A.D. 2021-Mar-28 00:00:00.0000 TDB 
 X =-9.900832400796102E-01 Y =-1.154908248346867E-01 Z =-5.006174614047373E-02
 VX= 1.889369385755944E-03 VY=-1.571833237884480E-02 VZ=-6.813853661113303E-03
2459302.500000000 = A.D. 2021-Mar-29 00:00:00.0000 TDB 
 X =-9.880466628615548E-01 Y =-1.311911940882234E-01 Z =-5.686781323395399E-02
 VX= 2.183641822458554E-03 VY=-1.568163287098865E-02 VZ=-6.797945320936154E-03
2459303.500000000 = A.D. 2021-Mar-30 00:00:00.0000 TDB 
 X =-9.857162572998512E-01 Y =-1.468525472928955E-01 Z =-6.365696777310631E-02
 VX= 2.477011682736966E-03 VY=-1.564030355641434E-02 VZ=-6.780029972362267E-03
2459304.500000000 = A.D. 2021-Mar-31 00:00:00.0000 TDB 
 X =-9.830929690453316E-01 Y =-1.624702646900434E-01 Z =-7.042720710551852E-02
 VX= 2.769392915167128E-03 VY=-1.559436475288705E-02 VZ=-6.760116423403879E-03
